CAPELLA-11 (ACADIA-1)   
1 57693U 23126A   26186.15790778  .00008242  00000+0  99598-3 0  9999
2 57693  53.0050 106.9012 0001699 101.5847 258.5323 14.84459748154793
CAPELLA-14 (ACADIA-4)   
1 59444U 24066C   26186.30530467  .00022531  00000+0  13906-2 0  9998
2 59444  45.6022 159.7758 0001403 157.1337 202.9611 15.09619757115226
CAPELLA-13 (ACADIA-3)   
1 60419U 24142A   26185.70084090  .00009358  00000+0  10425-2 0  9991
2 60419  53.0066 341.1190 0001299  93.8207 266.2922 14.87674917103019
CAPELLA-15 (ACADIA-5)   
1 60544U 24149CE  26185.68785030  .00007133  00000+0  70141-3 0  9997
2 60544  97.6734 258.1548 0003724  23.2249 336.9138 14.92412141102463
CAPELLA-16 (ACADIA-6)   
1 65318U 25188D   26186.50975146  .00009705  00000+0  91524-3 0  9991
2 65318  97.7378 261.3872 0005008 159.3814 200.7610 14.93978332 46655
CAPELLA-19 (ACADIA-9)   
1 67384U 26004X   26184.95833634  .00008941  00000+0  10118-2 0  9996
2 67384  97.8001 183.0301 0001448  90.2530 269.8852 14.86661078 25764
CAPELLA-18 (ACADIA-8)   
1 67385U 26004Y   26185.70875389  .00001874  00000+0  21713-3 0  9996
2 67385  97.8005 183.9193 0001852  91.2917 268.8511 14.86653812 25887
CAPELLA-20 (ACADIA-10)  
1 68485U 26067BX  26186.33798881  .00010428  00000+0  10393-2 0  9994
2 68485  97.7582 144.3420 0000681 167.1247 192.9989 14.91767572 14430
