{"fetched_at":"2026-07-06T08:46:54.048Z","source":"https://celestrak.org/NORAD/elements/gp.php?NAME=CAPELLA&FORMAT=JSON","constellation":"capella","records":[{"OBJECT_NAME":"CAPELLA-11 (ACADIA-1)","OBJECT_ID":"2023-126A","EPOCH":"2026-07-05T03:47:23.232192","CLASSIFICATION_TYPE":"U","MEAN_MOTION":14.84459748,"ECCENTRICITY":0.0001699,"INCLINATION":53.005,"RA_OF_ASC_NODE":106.9012,"ARG_OF_PERICENTER":101.5847,"MEAN_ANOMALY":258.5323,"EPHEMERIS_TYPE":0,"NORAD_CAT_ID":57693,"ELEMENT_SET_NO":999,"REV_AT_EPOCH":15479,"BSTAR":0.00099598,"MEAN_MOTION_DOT":0.00008242,"MEAN_MOTION_DDOT":0},{"OBJECT_NAME":"CAPELLA-14 (ACADIA-4)","OBJECT_ID":"2024-066C","EPOCH":"2026-07-05T07:19:38.322624","CLASSIFICATION_TYPE":"U","MEAN_MOTION":15.09619757,"ECCENTRICITY":0.0001404,"INCLINATION":45.6022,"RA_OF_ASC_NODE":159.7758,"ARG_OF_PERICENTER":157.1337,"MEAN_ANOMALY":202.9611,"EPHEMERIS_TYPE":0,"NORAD_CAT_ID":59444,"ELEMENT_SET_NO":999,"REV_AT_EPOCH":11522,"BSTAR":0.0013906,"MEAN_MOTION_DOT":0.00022531,"MEAN_MOTION_DDOT":0},{"OBJECT_NAME":"CAPELLA-13 (ACADIA-3)","OBJECT_ID":"2024-142A","EPOCH":"2026-07-04T16:49:12.653760","CLASSIFICATION_TYPE":"U","MEAN_MOTION":14.87674917,"ECCENTRICITY":0.00012997,"INCLINATION":53.0066,"RA_OF_ASC_NODE":341.119,"ARG_OF_PERICENTER":93.8207,"MEAN_ANOMALY":266.2922,"EPHEMERIS_TYPE":0,"NORAD_CAT_ID":60419,"ELEMENT_SET_NO":999,"REV_AT_EPOCH":10301,"BSTAR":0.0010425326,"MEAN_MOTION_DOT":0.00009358,"MEAN_MOTION_DDOT":0},{"OBJECT_NAME":"CAPELLA-15 (ACADIA-5)","OBJECT_ID":"2024-149CE","EPOCH":"2026-07-04T16:30:30.265056","CLASSIFICATION_TYPE":"U","MEAN_MOTION":14.92412141,"ECCENTRICITY":0.0003724,"INCLINATION":97.6734,"RA_OF_ASC_NODE":258.1548,"ARG_OF_PERICENTER":23.2249,"MEAN_ANOMALY":336.9138,"EPHEMERIS_TYPE":0,"NORAD_CAT_ID":60544,"ELEMENT_SET_NO":999,"REV_AT_EPOCH":10246,"BSTAR":0.00070141,"MEAN_MOTION_DOT":0.00007133,"MEAN_MOTION_DDOT":0},{"OBJECT_NAME":"CAPELLA-16 (ACADIA-6)","OBJECT_ID":"2025-188D","EPOCH":"2026-07-05T12:14:02.526144","CLASSIFICATION_TYPE":"U","MEAN_MOTION":14.93978332,"ECCENTRICITY":0.00050088,"INCLINATION":97.7378,"RA_OF_ASC_NODE":261.3872,"ARG_OF_PERICENTER":159.3814,"MEAN_ANOMALY":200.761,"EPHEMERIS_TYPE":0,"NORAD_CAT_ID":65318,"ELEMENT_SET_NO":999,"REV_AT_EPOCH":4665,"BSTAR":0.0009152411,"MEAN_MOTION_DOT":0.00009705,"MEAN_MOTION_DDOT":0},{"OBJECT_NAME":"CAPELLA-19 (ACADIA-9)","OBJECT_ID":"2026-004X","EPOCH":"2026-07-03T23:00:00.259776","CLASSIFICATION_TYPE":"U","MEAN_MOTION":14.86661078,"ECCENTRICITY":0.00014481,"INCLINATION":97.8001,"RA_OF_ASC_NODE":183.0301,"ARG_OF_PERICENTER":90.253,"MEAN_ANOMALY":269.8852,"EPHEMERIS_TYPE":0,"NORAD_CAT_ID":67384,"ELEMENT_SET_NO":999,"REV_AT_EPOCH":2576,"BSTAR":0.0010118189,"MEAN_MOTION_DOT":0.00008941,"MEAN_MOTION_DDOT":0},{"OBJECT_NAME":"CAPELLA-18 (ACADIA-8)","OBJECT_ID":"2026-004Y","EPOCH":"2026-07-04T17:00:36.336096","CLASSIFICATION_TYPE":"U","MEAN_MOTION":14.86653812,"ECCENTRICITY":0.00018521,"INCLINATION":97.8005,"RA_OF_ASC_NODE":183.9193,"ARG_OF_PERICENTER":91.2917,"MEAN_ANOMALY":268.8511,"EPHEMERIS_TYPE":0,"NORAD_CAT_ID":67385,"ELEMENT_SET_NO":999,"REV_AT_EPOCH":2588,"BSTAR":0.00021712643,"MEAN_MOTION_DOT":0.00001874,"MEAN_MOTION_DDOT":0},{"OBJECT_NAME":"CAPELLA-20 (ACADIA-10)","OBJECT_ID":"2026-067BX","EPOCH":"2026-07-05T08:06:42.233184","CLASSIFICATION_TYPE":"U","MEAN_MOTION":14.91767572,"ECCENTRICITY":0.0000682,"INCLINATION":97.7582,"RA_OF_ASC_NODE":144.342,"ARG_OF_PERICENTER":167.1247,"MEAN_ANOMALY":192.9989,"EPHEMERIS_TYPE":0,"NORAD_CAT_ID":68485,"ELEMENT_SET_NO":999,"REV_AT_EPOCH":1443,"BSTAR":0.0010393,"MEAN_MOTION_DOT":0.00010428,"MEAN_MOTION_DDOT":0}]}
